CCSDS_OMM_VERS = 2.0
CREATION_DATE  = 
ORIGINATOR     = 

OBJECT_NAME    = UNKNOWN
OBJECT_ID      = 
CENTER_NAME    = EARTH
REF_FRAME      = TEME
TIME_SYSTEM    = UTC
MEAN_ELEMENT_THEORY = SGP/SGP4

EPOCH          = 2025-12-13T06:55:15.957696
MEAN_MOTION    = 13.38013571
ECCENTRICITY   = .0209851
INCLINATION    = 67.1347
RA_OF_ASC_NODE = 175.4210
ARG_OF_PERICENTER = 33.8521
MEAN_ANOMALY   = 145.8783

EPHEMERIS_TYPE = 0
CLASSIFICATION_TYPE = U
NORAD_CAT_ID   = 81317
ELEMENT_SET_NO = 999
REV_AT_EPOCH   = 58870
BSTAR          = .52249E-3
MEAN_MOTION_DOT = .249E-5
MEAN_MOTION_DDOT = 0

CCSDS_OMM_VERS = 2.0
CREATION_DATE  = 
ORIGINATOR     = 

OBJECT_NAME    = UNKNOWN
OBJECT_ID      = 
CENTER_NAME    = EARTH
REF_FRAME      = TEME
TIME_SYSTEM    = UTC
MEAN_ELEMENT_THEORY = SGP/SGP4

EPOCH          = 2025-12-09T21:10:13.198944
MEAN_MOTION    = 14.46639756
ECCENTRICITY   = .0346438
INCLINATION    = 65.7524
RA_OF_ASC_NODE = 36.9056
ARG_OF_PERICENTER = 314.7334
MEAN_ANOMALY   = 42.6030

EPHEMERIS_TYPE = 0
CLASSIFICATION_TYPE = U
NORAD_CAT_ID   = 81323
ELEMENT_SET_NO = 999
REV_AT_EPOCH   = 11264
BSTAR          = .30321E-2
MEAN_MOTION_DOT = .23372E-3
MEAN_MOTION_DDOT = 0

CCSDS_OMM_VERS = 2.0
CREATION_DATE  = 
ORIGINATOR     = 

OBJECT_NAME    = UNKNOWN
OBJECT_ID      = 
CENTER_NAME    = EARTH
REF_FRAME      = TEME
TIME_SYSTEM    = UTC
MEAN_ELEMENT_THEORY = SGP/SGP4

EPOCH          = 2025-12-11T11:31:56.972928
MEAN_MOTION    = 13.22139201
ECCENTRICITY   = .083121
INCLINATION    = 65.8204
RA_OF_ASC_NODE = 133.0588
ARG_OF_PERICENTER = 30.5613
MEAN_ANOMALY   = 334.1242

EPHEMERIS_TYPE = 0
CLASSIFICATION_TYPE = U
NORAD_CAT_ID   = 81329
ELEMENT_SET_NO = 999
REV_AT_EPOCH   = 57791
BSTAR          = .68469E-3
MEAN_MOTION_DOT = .1832E-4
MEAN_MOTION_DDOT = 0

CCSDS_OMM_VERS = 2.0
CREATION_DATE  = 
ORIGINATOR     = 

OBJECT_NAME    = UNKNOWN
OBJECT_ID      = 
CENTER_NAME    = EARTH
REF_FRAME      = TEME
TIME_SYSTEM    = UTC
MEAN_ELEMENT_THEORY = SGP/SGP4

EPOCH          = 2025-12-12T13:43:50.377440
MEAN_MOTION    = 15.03834599
ECCENTRICITY   = .0005938
INCLINATION    = 85.8730
RA_OF_ASC_NODE = 199.4454
ARG_OF_PERICENTER = 263.2272
MEAN_ANOMALY   = 96.8286

EPHEMERIS_TYPE = 0
CLASSIFICATION_TYPE = U
NORAD_CAT_ID   = 81343
ELEMENT_SET_NO = 999
REV_AT_EPOCH   = 45429
BSTAR          = .65656E-3
MEAN_MOTION_DOT = .9063E-4
MEAN_MOTION_DDOT = 0

CCSDS_OMM_VERS = 2.0
CREATION_DATE  = 
ORIGINATOR     = 

OBJECT_NAME    = UNKNOWN
OBJECT_ID      = 
CENTER_NAME    = EARTH
REF_FRAME      = TEME
TIME_SYSTEM    = UTC
MEAN_ELEMENT_THEORY = SGP/SGP4

EPOCH          = 2025-12-13T13:12:07.113312
MEAN_MOTION    = 13.78832326
ECCENTRICITY   = .0117394
INCLINATION    = 66.7991
RA_OF_ASC_NODE = 50.0567
ARG_OF_PERICENTER = 322.7900
MEAN_ANOMALY   = 36.5078

EPHEMERIS_TYPE = 0
CLASSIFICATION_TYPE = U
NORAD_CAT_ID   = 81359
ELEMENT_SET_NO = 999
REV_AT_EPOCH   = 60559
BSTAR          = .11658E-2
MEAN_MOTION_DOT = .1176E-4
MEAN_MOTION_DDOT = 0

CCSDS_OMM_VERS = 2.0
CREATION_DATE  = 
ORIGINATOR     = 

OBJECT_NAME    = UNKNOWN
OBJECT_ID      = 
CENTER_NAME    = EARTH
REF_FRAME      = TEME
TIME_SYSTEM    = UTC
MEAN_ELEMENT_THEORY = SGP/SGP4

EPOCH          = 2025-12-11T12:35:12.148224
MEAN_MOTION    = 13.45141726
ECCENTRICITY   = .070943
INCLINATION    = 65.8840
RA_OF_ASC_NODE = 74.8815
ARG_OF_PERICENTER = 82.2469
MEAN_ANOMALY   = 285.8476

EPHEMERIS_TYPE = 0
CLASSIFICATION_TYPE = U
NORAD_CAT_ID   = 81366
ELEMENT_SET_NO = 999
REV_AT_EPOCH   = 6579
BSTAR          = .39569E-3
MEAN_MOTION_DOT = .1027E-4
MEAN_MOTION_DDOT = 0

CCSDS_OMM_VERS = 2.0
CREATION_DATE  = 
ORIGINATOR     = 

OBJECT_NAME    = UNKNOWN
OBJECT_ID      = 
CENTER_NAME    = EARTH
REF_FRAME      = TEME
TIME_SYSTEM    = UTC
MEAN_ELEMENT_THEORY = SGP/SGP4

EPOCH          = 2025-12-05T11:49:47.388576
MEAN_MOTION    = 14.70202489
ECCENTRICITY   = .0070646
INCLINATION    = 98.8157
RA_OF_ASC_NODE = 75.3349
ARG_OF_PERICENTER = 27.8469
MEAN_ANOMALY   = 332.6488

EPHEMERIS_TYPE = 0
CLASSIFICATION_TYPE = U
NORAD_CAT_ID   = 81371
ELEMENT_SET_NO = 999
REV_AT_EPOCH   = 64077
BSTAR          = .11223E-2
MEAN_MOTION_DOT = .6971E-4
MEAN_MOTION_DDOT = 0

CCSDS_OMM_VERS = 2.0
CREATION_DATE  = 
ORIGINATOR     = 

OBJECT_NAME    = UNKNOWN
OBJECT_ID      = 
CENTER_NAME    = EARTH
REF_FRAME      = TEME
TIME_SYSTEM    = UTC
MEAN_ELEMENT_THEORY = SGP/SGP4

EPOCH          = 2025-12-12T18:32:06.762336
MEAN_MOTION    = 14.36253742
ECCENTRICITY   = .0083477
INCLINATION    = 71.0491
RA_OF_ASC_NODE = 356.4728
ARG_OF_PERICENTER = 85.0193
MEAN_ANOMALY   = 276.0464

EPHEMERIS_TYPE = 0
CLASSIFICATION_TYPE = U
NORAD_CAT_ID   = 81386
ELEMENT_SET_NO = 999
REV_AT_EPOCH   = 62424
BSTAR          = .24066E-2
MEAN_MOTION_DOT = .7276E-4
MEAN_MOTION_DDOT = 0

CCSDS_OMM_VERS = 2.0
CREATION_DATE  = 
ORIGINATOR     = 

OBJECT_NAME    = UNKNOWN
OBJECT_ID      = 
CENTER_NAME    = EARTH
REF_FRAME      = TEME
TIME_SYSTEM    = UTC
MEAN_ELEMENT_THEORY = SGP/SGP4

EPOCH          = 2025-12-09T10:01:42.622752
MEAN_MOTION    = 12.35637279
ECCENTRICITY   = .0165236
INCLINATION    = 103.1047
RA_OF_ASC_NODE = 231.9161
ARG_OF_PERICENTER = 150.7058
MEAN_ANOMALY   = 210.3385

EPHEMERIS_TYPE = 0
CLASSIFICATION_TYPE = U
NORAD_CAT_ID   = 81390
ELEMENT_SET_NO = 999
REV_AT_EPOCH   = 49968
BSTAR          = -.15194E-2
MEAN_MOTION_DOT = -.251E-5
MEAN_MOTION_DDOT = 0

CCSDS_OMM_VERS = 2.0
CREATION_DATE  = 
ORIGINATOR     = 

OBJECT_NAME    = UNKNOWN
OBJECT_ID      = 
CENTER_NAME    = EARTH
REF_FRAME      = TEME
TIME_SYSTEM    = UTC
MEAN_ELEMENT_THEORY = SGP/SGP4

EPOCH          = 2025-12-13T04:54:03.081312
MEAN_MOTION    = 13.81683276
ECCENTRICITY   = .0041263
INCLINATION    = 100.3989
RA_OF_ASC_NODE = 335.4726
ARG_OF_PERICENTER = 27.4401
MEAN_ANOMALY   = 35.5230

EPHEMERIS_TYPE = 0
CLASSIFICATION_TYPE = U
NORAD_CAT_ID   = 81392
ELEMENT_SET_NO = 999
REV_AT_EPOCH   = 60224
BSTAR          = .46305E-2
MEAN_MOTION_DOT = .4931E-4
MEAN_MOTION_DDOT = 0

CCSDS_OMM_VERS = 2.0
CREATION_DATE  = 
ORIGINATOR     = 

OBJECT_NAME    = UNKNOWN
OBJECT_ID      = 
CENTER_NAME    = EARTH
REF_FRAME      = TEME
TIME_SYSTEM    = UTC
MEAN_ELEMENT_THEORY = SGP/SGP4

EPOCH          = 2025-11-30T21:10:58.911456
MEAN_MOTION    = 13.88804744
ECCENTRICITY   = .0160706
INCLINATION    = 99.4716
RA_OF_ASC_NODE = 22.8652
ARG_OF_PERICENTER = 255.2060
MEAN_ANOMALY   = 103.1244

EPHEMERIS_TYPE = 0
CLASSIFICATION_TYPE = U
NORAD_CAT_ID   = 81405
ELEMENT_SET_NO = 999
REV_AT_EPOCH   = 56015
BSTAR          = .13072E-2
MEAN_MOTION_DOT = .1703E-4
MEAN_MOTION_DDOT = 0

CCSDS_OMM_VERS = 2.0
CREATION_DATE  = 
ORIGINATOR     = 

OBJECT_NAME    = UNKNOWN
OBJECT_ID      = 
CENTER_NAME    = EARTH
REF_FRAME      = TEME
TIME_SYSTEM    = UTC
MEAN_ELEMENT_THEORY = SGP/SGP4

EPOCH          = 2025-11-29T23:25:05.808288
MEAN_MOTION    = 13.12098095
ECCENTRICITY   = .0866885
INCLINATION    = 65.8150
RA_OF_ASC_NODE = 183.4971
ARG_OF_PERICENTER = 325.4234
MEAN_ANOMALY   = 29.3212

EPHEMERIS_TYPE = 0
CLASSIFICATION_TYPE = U
NORAD_CAT_ID   = 81406
ELEMENT_SET_NO = 999
REV_AT_EPOCH   = 53200
BSTAR          = .77531E-3
MEAN_MOTION_DOT = .1902E-4
MEAN_MOTION_DDOT = 0

