UNKNOWN                 
1 81317U          25347.28837914  .00000249  00000+0  52249-3 0  9992
2 81317  67.1347 175.4210 0209851  33.8521 145.8783 13.38013571588703
UNKNOWN                 
1 81323U          25343.88209721  .00023372  00000+0  30321-2 0  9998
2 81323  65.7524  36.9056 0346438 314.7334  42.6030 14.46639756112640
UNKNOWN                 
1 81329U          25345.48052052  .00001832  00000+0  68469-3 0  9997
2 81329  65.8204 133.0588 0831210  30.5613 334.1242 13.22139201577913
UNKNOWN                 
1 81343U          25346.57211085  .00009063  00000+0  65656-3 0  9996
2 81343  85.8730 199.4454 0005938 263.2272  96.8286 15.03834599454297
UNKNOWN                 
1 81359U          25347.55008233  .00001176  00000+0  11658-2 0  9990
2 81359  66.7991  50.0567 0117394 322.7900  36.5078 13.78832326605594
UNKNOWN                 
1 81366U          25345.52444616  .00001027  00000+0  39569-3 0  9999
2 81366  65.8840  74.8815 0709430  82.2469 285.8476 13.45141726 65795
UNKNOWN                 
1 81371U          25339.49290959  .00006971  00000+0  11223-2 0  9992
2 81371  98.8157  75.3349 0070646  27.8469 332.6488 14.70202489640775
UNKNOWN                 
1 81386U          25346.77230049  .00007276  00000+0  24066-2 0  9999
2 81386  71.0491 356.4728 0083477  85.0193 276.0464 14.36253742624244
UNKNOWN                 
1 81390U          25343.41785443 -.00000251  00000+0 -15194-2 0  9995
2 81390 103.1047 231.9161 0165236 150.7058 210.3385 12.35637279499684
UNKNOWN                 
1 81392U          25347.20420233  .00004931  00000+0  46305-2 0  9996
2 81392 100.3989 335.4726 0041263  27.4401  35.5230 13.81683276602246
UNKNOWN                 
1 81405U          25334.88262629  .00001703  00000+0  13072-2 0  9993
2 81405  99.4716  22.8652 0160706 255.2060 103.1244 13.88804744560150
UNKNOWN                 
1 81406U          25333.97576167  .00001902  00000+0  77531-3 0  9990
2 81406  65.8150 183.4971 0866885 325.4234  29.3212 13.12098095532000
